From:	Horizons Ephemeris System <horizons@ssd.jpl.nasa.gov>
Sent:	Friday, December 4, 2020 11:11 AM
Subject:	[Horizons] MAJOR BODY #C(usr={90.,-75.,.600^G}@301)_T(301) (1/1)

 Automated mail xmit by MAIL_REQUEST, PID= 4032 Fri Dec  4 09:11:23 2020
++++++++++++++++++++++++++++++++ (part 1 of 1)  +++++++++++++++++++++++++++++++
*******************************************************************************
 Revised: July 31, 2013             Moon / (Earth)                          301
 
 GEOPHYSICAL DATA (updated 2018-Aug-15):
  Vol. mean radius, km  = 1737.53+-0.03    Mass, x10^22 kg       =    7.349
  Radius (gravity), km  = 1738.0           Surface emissivity    =    0.92
  Radius (IAU), km      = 1737.4           GM, km^3/s^2          = 4902.800066
  Density, g/cm^3       =    3.3437        GM 1-sigma, km^3/s^2  =  +-0.0001  
  V(1,0)                =   +0.21          Surface accel., m/s^2 =    1.62
  Earth/Moon mass ratio = 81.3005690769    Farside crust. thick. = ~80 - 90 km
  Mean crustal density  = 2.97+-.07 g/cm^3 Nearside crust. thick.= 58+-8 km 
  Heat flow, Apollo 15  = 3.1+-.6 mW/m^2   Mean angular diameter = 31'05.2"
  Heat flow, Apollo 17  = 2.2+-.5 mW/m^2   Sid. rot. rate, rad/s = 0.0000026617
  Geometric Albedo      = 0.12             Mean solar day        = 29.5306 d
  Obliquity to orbit    = 6.67 deg         Orbit period          = 27.321582 d
  Semi-major axis, a    = 384400 km        Eccentricity          = 0.05490
  Mean motion, rad/s    = 2.6616995x10^-6  Inclination           = 5.145 deg
  Apsidal period        = 3231.50 d        Nodal period          = 6798.38 d
                                 Perihelion  Aphelion    Mean
  Solar Constant (W/m^2)         1414+-7     1323+-7     1368+-7
  Maximum Planetary IR (W/m^2)   1314        1226        1268
  Minimum Planetary IR (W/m^2)      5.2         5.2         5.2
********************************************************************************
 
 
*******************************************************************************
Ephemeris / MAIL_REQUEST Fri Dec  4 09:11:22 2020 Pasadena, USA  / Horizons
*******************************************************************************
Target body name: Moon (301)                      {source: DE431mx}
Center body name: Moon (301)                      {source: DE431mx}
Center-site name: (user defined site below)
*******************************************************************************
Start time      : A.D. 2020-Jan-01 00:00:00.0000 TDB
Stop  time      : A.D. 2039-Jan-01 00:00:00.0000 TDB
Step-size       : 10000 steps
*******************************************************************************
Center geodetic : 90.0000000,-75.000000,0.6000000 {E-lon(deg),Lat(deg),Alt(km)}
Center cylindric: 90.0000000,449.827500,-1678.779 {E-lon(deg),Dxy(km),Dz(km)}
Center pole/equ : IAU_MOON                        {East-longitude positive}
Center radii    : 1737.4 x 1737.4 x 1737.4 km     {Equator, meridian, pole}    
Output units    : KM-S
Output type     : GEOMETRIC cartesian states
Output format   : 3 (position, velocity, LT, range, range-rate)
Reference frame : Ecliptic of J2000.0
*******************************************************************************
JDTDB
   X     Y     Z
   VX    VY    VZ
   LT    RG    RR
*******************************************************************************
$$SOE
2459532.396000000 = A.D. 2021-Nov-13 21:30:14.4000 TDB 
   9.130927114139413E+01  4.524206330686899E+02  1.675596069396606E+03
  -1.146379659907602E-03  3.490410741150026E-04 -3.177274851198118E-05
   5.797343974543885E-03  1.738000000000000E+03  3.593213183841487E-20
2459533.090000000 = A.D. 2021-Nov-14 14:09:36.0000 TDB 
   2.119764648246387E+01  4.677847787070785E+02  1.673729984374294E+03
  -1.187204310040001E-03  1.623432878843766E-04 -3.033690153425148E-05
   5.797343974543886E-03  1.738000000000001E+03  1.197737727947162E-20
2459533.784000000 = A.D. 2021-Nov-15 06:48:57.6000 TDB 
  -5.046040423420516E+01  4.718075740706949E+02  1.671973492808438E+03
  -1.197852031773395E-03 -2.844301298884131E-05 -2.812512816787263E-05
   5.797343974543886E-03  1.738000000000000E+03  1.197737727947162E-20
2459534.478000000 = A.D. 2021-Nov-15 23:28:19.2000 TDB 
  -1.218436789553206E+02  4.643889626924176E+02  1.670371518324021E+03
  -1.178059914073310E-03 -2.184714974842721E-04 -2.519403701766019E-05
   5.797343974543886E-03  1.738000000000000E+03 -1.596983637262883E-20
2459535.172000000 = A.D. 2021-Nov-16 16:07:40.8000 TDB 
  -1.911383886256247E+02  4.457194473733524E+02  1.668965035771210E+03
  -1.128337480617670E-03 -4.029174935965438E-04 -2.161845485970797E-05
   5.797343974543885E-03  1.738000000000001E+03 -4.790950911788648E-20
2459535.866000000 = A.D. 2021-Nov-17 08:47:02.4000 TDB 
  -2.565841628651443E+02  4.162751194544244E+02  1.667790032435138E+03
  -1.049953092951729E-03 -5.771000794269480E-04 -1.748957023054525E-05
   5.797343974543885E-03  1.738000000000001E+03  1.058001659686660E-19
2459536.560000000 = A.D. 2021-Nov-18 01:26:24.0000 TDB 
  -3.165186644817383E+02  3.768054673729839E+02  1.666876592550428E+03
  -9.449012533191231E-04 -7.366003356421722E-04 -1.291268299353300E-05
   5.797343974543886E-03  1.738000000000001E+03 -2.595098410552184E-20
2459537.254000000 = A.D. 2021-Nov-18 18:05:45.6000 TDB 
  -3.694196915577179E+02  3.283142834426675E+02  1.666248127613931E+03
  -8.158516846821826E-04 -8.773728236277121E-04 -8.004598828767375E-06
   5.797343974543885E-03  1.738000000000001E+03 -5.389819775762229E-20
2459537.948000000 = A.D. 2021-Nov-19 10:45:07.2000 TDB 
  -4.139437118550072E+02  2.720341586317287E+02  1.665920772411830E+03
  -6.660815065476019E-04 -9.958475377070861E-04 -2.890716204763920E-06
   5.797343974543886E-03  1.738000000000001E+03 -5.489631253091159E-21
2459538.642000000 = A.D. 2021-Nov-20 03:24:28.8000 TDB 
  -4.489598656818036E+02  2.093952130172863E+02  1.665902963492299E+03
  -4.993922298539285E-04 -1.089019826174741E-03  2.298135082325775E-06
   5.797343974543885E-03  1.738000000000000E+03  1.275091622877083E-19
2459539.336000000 = A.D. 2021-Nov-20 20:03:50.4000 TDB 
  -4.735785877379723E+02  1.419888510174958E+02  1.666195212879584E+03
  -3.200136544817683E-04 -1.154526077707813E-03  7.429031485292061E-06
   5.797343974543886E-03  1.738000000000000E+03  5.290008298433300E-20
2459540.030000000 = A.D. 2021-Nov-21 12:43:12.0000 TDB 
  -4.871741329311557E+02  7.152745236662963E+01  1.666790085091916E+03
  -1.324970623912330E-04 -1.190703319399199E-03  1.237038404485266E-05
   5.797343974543884E-03  1.738000000000000E+03 -1.058001659686660E-19
2459540.724000000 = A.D. 2021-Nov-22 05:22:33.6000 TDB 
  -4.894004425291751E+02 -1.989905534481977E-01  1.667672380072000E+03
   5.839964751763568E-05 -1.196631262290967E-03  1.699536153515859E-05
   5.797343974543886E-03  1.738000000000001E+03  1.996229546578604E-21
2459541.418000000 = A.D. 2021-Nov-22 22:01:55.2000 TDB 
  -4.801999517563374E+02 -7.136820311601139E+01  1.668819518676961E+03
   2.478320444068159E-04 -1.172155751613012E-03  2.118520643331045E-05
   5.797343974543886E-03  1.738000000000001E+03  9.981147732893017E-20
2459542.112000000 = A.D. 2021-Nov-23 14:41:16.8000 TDB 
  -4.598051143039170E+02 -1.401717913792698E+02  1.670202121230089E+03
   4.309915039149693E-04 -1.117893023522020E-03  2.483234185669928E-05
   5.797343974543886E-03  1.738000000000000E+03  5.190196821104370E-20
2459542.806000000 = A.D. 2021-Nov-24 07:20:38.4000 TDB 
  -4.287325992703161E+02 -2.048610801890401E+02  1.671784763702164E+03
   6.032267724244986E-04 -1.035214629375759E-03  2.784317449245320E-05
   5.797343974543886E-03  1.738000000000001E+03  0.000000000000000E+00
2459543.500000000 = A.D. 2021-Nov-25 00:00:00.0000 TDB 
  -3.877702977057767E+02 -2.637914747007956E+02  1.673526890758662E+03
   7.601617370487369E-04 -9.262133536825944E-04  3.014051157645969E-05
   5.797343974543885E-03  1.738000000000001E+03  6.787180458367251E-20
2459544.194000000 = A.D. 2021-Nov-25 16:39:21.6000 TDB 
  -3.379574550755677E+02 -3.154642270139827E+02  1.675383860502816E+03
   8.978064579244933E-04 -7.936509138659110E-04  3.166552744097648E-05
   5.797343974543886E-03  1.738000000000000E+03  8.783410004945856E-20
2459544.888000000 = A.D. 2021-Nov-26 09:18:43.2000 TDB 
  -2.805584184202464E+02 -3.585645504363384E+02  1.677308092457650E+03
   1.012658665129838E-03 -6.408886796126574E-04  3.237923458877348E-05
   5.797343974543886E-03  1.738000000000001E+03  1.077963955152446E-19
2459545.582000000 = A.D. 2021-Nov-27 01:58:04.8000 TDB 
  -2.170306486780129E+02 -3.919951110695038E+02  1.679250288203641E+03
   1.101793136002767E-03 -4.718030771996825E-04  3.226343312038148E-05
   5.797343974543885E-03  1.738000000000000E+03  5.589442730420090E-20
2459546.276000000 = A.D. 2021-Nov-27 18:37:26.4000 TDB 
  -1.489877955530120E+02 -4.149040383100937E+02  1.681160693024386E+03
   1.162936647349684E-03 -2.906877397481788E-04  3.132112865008746E-05
   5.797343974543886E-03  1.738000000000001E+03 -7.984918186314414E-21
2459546.970000000 = A.D. 2021-Nov-28 11:16:48.0000 TDB 
  -7.815876064917529E+01 -4.267067302642066E+02  1.682990366722584E+03
   1.194526537162605E-03 -1.021448173747811E-04  2.957642162188196E-05
   5.797343974543886E-03  1.738000000000000E+03  7.984918186314416E-21
2459547.664000000 = A.D. 2021-Nov-29 03:56:09.6000 TDB 
  -6.343780829850942E+00 -4.271008841003995E+02  1.684692432239618E+03
   1.195751306442914E-03  8.903183884318233E-05  2.707388032689984E-05
   5.797343974543885E-03  1.738000000000000E+03  0.000000000000000E+00
2459548.358000000 = A.D. 2021-Nov-29 20:35:31.2000 TDB 
   6.463135523707786E+01 -4.160743515324335E+02  1.686223271668697E+03
   1.166572136090470E-03  2.779786685659168E-04  2.387741694860435E-05
   5.797343974543885E-03  1.738000000000000E+03  0.000000000000000E+00
